      2.10          N: GNSS NAV DATA                        RINEX VERSION / TYPE
fic2rin                                 02/13/2023 00:17:25 PGM / RUN BY / DATE
                                                            END OF HEADER
3  23  2 12  1 59 44.0 -.364149920642D-03  .432009983342D-11  .000000000000D+00
     .400000000000D+02  .968750000000D+00  .432732310752D-08  .123408487988D+01
     .558793544769D-08  .445664534345D-02  .663660466671D-05  .515372159386D+04
     .718400000000D+04 -.633299350739D-07 -.110335743776D+01  .558793544769D-07
     .977307784449D+00  .259593750000D+03  .101660515218D+01 -.807105047736D-08
     .256082095419D-09  .100000000000D+01  .224900000000D+04  .000000000000D+00
     .240000000000D+01  .000000000000D+00  .186264514923D-08  .400000000000D+02
     .000000000000D+00  .400000000000D+01
8  23  2 12  1 59 44.0 -.108068343252D-03 -.181898940355D-11  .000000000000D+00
     .530000000000D+02 -.351562500000D+02  .476234122777D-08 -.166865596565D+01
    -.205449759960D-05  .831115443725D-02  .520981848240D-05  .515365450287D+04
     .718400000000D+04  .204890966415D-07  .305953592543D+01 -.949949026108D-07
     .960402967290D+00  .277468750000D+03  .212457819595D+00 -.833570435840D-08
    -.129291099779D-09  .100000000000D+01  .224900000000D+04  .000000000000D+00
     .240000000000D+01  .000000000000D+00  .512227416039D-08  .530000000000D+02
     .000000000000D+00  .400000000000D+01
12 23  2 12  9 59 44.0 -.339395366609D-03 -.454747350886D-11  .000000000000D+00
     .450000000000D+02  .782187500000D+02  .456483300076D-08 -.109641663171D+01
     .416673719883D-05  .891989935189D-02  .561960041523D-05  .515366174507D+04
     .359840000000D+05  .167638063431D-07  .210792571607D+01  .176951289177D-06
     .966170513040D+00  .275687500000D+03  .133358249983D+01 -.830463163553D-08
     .957182727646D-10  .100000000000D+01  .224900000000D+04  .000000000000D+00
     .240000000000D+01  .000000000000D+00 -.125728547573D-07  .450000000000D+02
     .288000000000D+05  .400000000000D+01
2  23  2 12 10  0  0.0 -.621361657977D-03  .250111042988D-11  .000000000000D+00
     .850000000000D+02 -.355000000000D+02  .431196532495D-08 -.690837072731D+00
    -.194087624550D-05  .200245435117D-01  .996515154839D-05  .515369117737D+04
     .360000000000D+05 -.268220901489D-06 -.223214537736D+01  .409781932831D-07
     .967110865078D+00  .196531250000D+03 -.132802364227D+01 -.833713298934D-08
     .195365280605D-09  .100000000000D+01  .224900000000D+04  .000000000000D+00
     .240000000000D+01  .000000000000D+00 -.176951289177D-07  .850000000000D+02
     .288000000000D+05  .400000000000D+01
1  23  2 12 10  0  0.0  .213427469134D-03 -.432009983342D-11  .000000000000D+00
     .169000000000D+03 -.302500000000D+02  .384194574675D-08  .302432891761D+00
    -.160932540894D-05  .123370529618D-01  .858865678310D-05  .515365263367D+04
     .360000000000D+05 -.949949026108D-07 -.213542793666D+01  .152736902237D-06
     .989389436773D+00  .232531250000D+03  .936834909380D+00 -.792211570220D-08
     .535736601294D-10  .100000000000D+01  .224900000000D+04  .000000000000D+00
     .240000000000D+01  .000000000000D+00  .465661287308D-08  .169000000000D+03
     .288000000000D+05  .400000000000D+01
5  23  2 12 10  0  0.0 -.115602277219D-03 -.147792889038D-11  .000000000000D+00
     .820000000000D+02  .450000000000D+01  .465662253845D-08  .288005215499D+01
     .115483999252D-06  .576436275151D-02  .708550214767D-05  .515360939598D+04
     .360000000000D+05  .223517417908D-07 -.114879934815D+01 -.465661287308D-07
     .964327059247D+00  .245687500000D+03  .113202456100D+01 -.803676333488D-08
     .362872257943D-09  .100000000000D+01  .224900000000D+04  .000000000000D+00
     .240000000000D+01  .000000000000D+00 -.111758708954D-07  .820000000000D+02
     .288000000000D+05  .400000000000D+01
3  23  2 12 10  0  0.0 -.364021398127D-03  .443378667114D-11  .000000000000D+00
     .105000000000D+03 -.600000000000D+01  .438946855327D-08 -.845669612917D+00
    -.219792127609D-06  .445637956727D-02  .702589750290D-05  .515372230530D+04
     .360000000000D+05  .130385160446D-07 -.110358761036D+01  .502914190292D-07
     .977316902818D+00  .256250000000D+03  .101611245600D+01 -.802569144512D-08
     .318227541169D-09  .100000000000D+01  .224900000000D+04  .000000000000D+00
     .240000000000D+01  .000000000000D+00  .186264514923D-08  .105000000000D+03
     .288000000000D+05  .400000000000D+01
14 23  2 12 10  0  0.0 -.289557501674D-04  .886757334229D-11  .000000000000D+00
     .220000000000D+02  .652500000000D+02  .476734143605D-08 -.103908943210D+01
     .335462391376D-05  .264398485888D-02  .617280602455D-05  .515366653442D+04
     .360000000000D+05  .149011611938D-07  .207089172692D+01 -.115483999252D-06
     .949511938641D+00  .257218750000D+03 -.308237789759D+01 -.825534386821D-08
     .821462788651D-11  .100000000000D+01  .224900000000D+04  .000000000000D+00
     .240000000000D+01  .000000000000D+00 -.791624188423D-08  .220000000000D+02
     .288000000000D+05  .400000000000D+01
10 23  2 12 10  0  0.0 -.243778340518D-04 -.159161572810D-11  .000000000000D+00
     .810000000000D+02 -.903125000000D+01  .430696511667D-08 -.178707279999D+01
    -.514090061188D-06  .845683924854D-02  .698305666447D-05  .515368384552D+04
     .360000000000D+05  .134110450745D-06 -.110626221814D+01 -.260770320892D-07
     .977072474076D+00  .250593750000D+03 -.244385660110D+01 -.789282876800D-08
     .476448417418D-09  .100000000000D+01  .224900000000D+04  .000000000000D+00
     .240000000000D+01  .000000000000D+00  .232830643654D-08  .810000000000D+02
     .288000000000D+05  .400000000000D+01
8  23  2 12 10  0  0.0 -.108120497316D-03 -.181898940355D-11  .000000000000D+00
     .570000000000D+02 -.943750000000D+01  .459054835762D-08  .253432242815D+01
    -.480562448502D-06  .831349904183D-02  .487640500069D-05  .515365753746D+04
     .360000000000D+05 -.968575477600D-07  .305929546558D+01  .186264514923D-08
     .960397629102D+00  .286250000000D+03  .212584701406D+00 -.822712840721D-08
    -.149291932894D-09  .100000000000D+01  .224900000000D+04  .000000000000D+00
     .240000000000D+01  .000000000000D+00  .512227416039D-08  .570000000000D+02
     .288000000000D+05  .400000000000D+01
7  23  2 12 10  0  0.0  .242444686592D-03 -.704858393874D-11  .000000000000D+00
     .330000000000D+02  .202500000000D+02  .481448625696D-08 -.292837525767D+00
     .112690031528D-05  .167257144349D-01  .992231070995D-05  .515359437370D+04
     .360000000000D+05 -.465661287308D-07  .993125659327D+00  .223517417908D-06
     .950381261617D+00  .183437500000D+03 -.222504888464D+01 -.841499337539D-08
    -.181078971237D-09  .100000000000D+01  .224900000000D+04  .000000000000D+00
     .240000000000D+01  .000000000000D+00 -.111758708954D-07  .330000000000D+02
     .288000000000D+05  .400000000000D+01
6  23  2 12 10  0  0.0  .571463722736D-03  .454747350886D-11  .000000000000D+00
     .570000000000D+02 -.289375000000D+02  .373872716156D-08  .544723375081D+00
    -.148452818394D-05  .290717766620D-02  .907666981220D-05  .515361102486D+04
     .360000000000D+05 -.130385160446D-07 -.214373483025D+01 -.484287738800D-07
     .988644929967D+00  .216562500000D+03 -.840073573831D+00 -.775318009393D-08
     .118219210019D-09  .100000000000D+01  .224900000000D+04  .000000000000D+00
     .240000000000D+01  .000000000000D+00  .372529029846D-08  .570000000000D+02
     .288000000000D+05  .400000000000D+01
4  23  2 12 10  0  0.0 -.291750766337D-04  .818545231596D-11  .000000000000D+00
     .234000000000D+03 -.399375000000D+02  .480484299814D-08  .209005620392D+01
    -.197626650333D-05  .230692047626D-02  .724196434021D-05  .515370946121D+04
     .360000000000D+05 -.167638063431D-07 -.224427740088D-01  .800937414169D-07
     .962743059827D+00  .244031250000D+03 -.304829993192D+01 -.817569769348D-08
    -.155006456641D-09  .100000000000D+01  .224900000000D+04  .000000000000D+00
     .240000000000D+01  .000000000000D+00 -.465661287308D-08  .490000000000D+03
     .288000000000D+05  .400000000000D+01
25 23  2 12 10  0  0.0  .419443473220D-03  .318323145621D-11  .000000000000D+00
     .110000000000D+02  .826875000000D+02  .479412826611D-08 -.118367266435D+01
     .439025461674D-05  .111520815408D-01  .592879951000D-05  .515377877998D+04
     .360000000000D+05  .204890966415D-06  .202680576018D+01  .216066837311D-06
     .953765046725D+00  .261218750000D+03  .102945875419D+01 -.837642034010D-08
     .692886004340D-10  .100000000000D+01  .224900000000D+04  .000000000000D+00
     .240000000000D+01  .000000000000D+00  .558793544769D-08  .110000000000D+02
     .288000000000D+05  .400000000000D+01
31 23  2 12 10  0  0.0 -.209012068808D-03 -.102318153949D-11  .000000000000D+00
     .720000000000D+02  .265625000000D+02  .457554773279D-08 -.885808648617D+00
     .139884650707D-05  .107784436550D-01  .107213854790D-04  .515365686798D+04
     .360000000000D+05  .238418579102D-06  .101266975040D+01  .111758708954D-07
     .954483248801D+00  .168156250000D+03  .499854388759D+00 -.805033532878D-08
    -.200008331150D-09  .100000000000D+01  .224900000000D+04  .000000000000D+00
     .240000000000D+01  .000000000000D+00 -.135041773319D-07  .720000000000D+02
     .288000000000D+05  .400000000000D+01
24 23  2 12 10  0  0.0 -.704280100763D-04 -.160298441187D-10  .000000000000D+00
     .540000000000D+02  .168125000000D+02  .515307178898D-08  .581148611835D+00
     .105425715446D-05  .137138820719D-01  .103730708361D-04  .515366414261D+04
     .360000000000D+05 -.117346644402D-06  .904223785327D+00  .141561031342D-06
     .934005519022D+00  .165906250000D+03  .883927376929D+00 -.843963725905D-08
    -.325727853587D-09  .100000000000D+01  .224900000000D+04  .000000000000D+00
     .240000000000D+01  .000000000000D+00  .232830643654D-08  .540000000000D+02
     .288000000000D+05  .400000000000D+01
